{"type":"FeatureCollection","features":[{"type":"Feature","properties":{"id":"GCCC","label_lat":"25.2","label_lon":"-16.2"},"geometry":{"type":"MultiPolygon","coordinates":[[[[-12.5,30.0],[-14.047778,30.73],[-15.744333,31.484585],[-16.047423,31.423573],[-16.358333,31.403175],[-16.669244,31.423573],[-16.972498,31.484585],[-17.26063,31.584601],[-17.416667,31.65],[-20.0,30.0],[-20.391944,29.999444],[-20.393333,28.45],[-20.000556,28.257778],[-19.671111,28.059167],[-19.664444,27.485833],[-19.668611,27.0],[-18.006667,25.002778],[-15.541180387099951,25.000861181484325],[-13.781833460721689,27.265899633322746],[-13.001957684015007,28.247994077303982],[-12.5,30.0]]]]}},{"type":"Feature","properties":{"id":"GCCO","label_lat":"24.942397","label_lon":"-21.0"},"geometry":{"type":"MultiPolygon","coordinates":[[[[-25.0,30.0],[-20.391944,29.999444],[-20.393333,28.45],[-20.000556,28.257778],[-19.671111,28.059167],[-19.664444,27.485833],[-19.668611,27.0],[-18.006667,25.002778],[-15.541180615693657,25.00086111994966],[-13.781833300013947,27.265899562056127],[-13.001957992848666,28.247993012616895],[-13.166667,27.666667],[-10.766667,27.666667],[-8.666667,27.666667],[-8.666615,27.333301],[-8.666408,25.998608],[-12.0,26.0],[-11.9998,23.998739],[-12.0,23.5],[-11.9998,23.448775],[-12.749814,23.390447],[-12.858147,23.332117],[-13.0,23.166667],[-13.083153,22.998808],[-13.145653,22.748825],[-13.124819,22.498842],[-13.066486,21.998875],[-13.016486,21.498911],[-12.999819,21.332256],[-14.0,21.333333],[-15.083333,21.333333],[-16.91655,21.332261],[-17.066553,20.7823],[-18.999919,18.9991],[-19.999936,19.999025],[-25.0,24.0],[-25.0,30.0]]]]}},{"type":"Feature","properties":{"id":"LECB","label_lat":"40.3","label_lon":"1.45"},"geometry":{"type":"MultiPolygon","coordinates":[[[[-0.066667,42.7],[0.2,42.75],[0.633333,42.716667],[0.75,42.883333],[1.0,42.833333],[1.25,42.75],[1.416667,42.75],[1.466667,42.683333],[1.716667,42.65],[1.816667,42.583333],[1.816667,42.5],[2.0,42.5],[2.05,42.4],[2.25,42.466667],[2.6,42.383333],[2.883333,42.458333],[3.0,42.5],[3.166667,42.433333],[3.375556,42.374722],[3.508333,42.3575],[4.041111,42.194722],[4.345556,42.095278],[4.433611,42.0675],[4.666667,42.0],[4.666667,39.0],[3.75,38.333333],[-1.00702,36.448075],[-1.498889,36.637778],[-1.774958,37.119862],[-1.333333,38.833333],[-1.28,39.031389],[-1.25,39.15],[-1.1,39.733333],[-0.066667,42.7]]]]}},{"type":"Feature","properties":{"id":"LECL","label_lat":"39.2","label_lon":"-0.5"},"geometry":{"type":"MultiPolygon","coordinates":[[[[0.698611110649283,40.23138888899511],[0.698611110649283,40.577777777836545],[-0.413888889283219,40.577777777836545],[-0.413888889283219,40.233333333253306],[-0.929949215940448,40.230780625289945],[-1.009037602042916,39.99987493937226],[-1.366666667408005,39.999999999978144],[-1.649999999920042,39.56666666704998],[-1.745277777642681,39.538888889292195],[-1.827222221827563,39.45611111128091],[-1.439766666716412,39.04431944411285],[-2.114497221669142,38.63440277803845],[-2.071666667324843,38.410277778114406],[-2.033333332617774,38.19999999970348],[-1.675000000191057,37.95944444421185],[-1.577000933521395,37.89286537874097],[-1.634645297105967,37.66859592819151],[-1.774957557916175,37.11986196940025],[-1.706186320066281,37.00005475226404],[-1.487500000404304,37.094444444325504],[-1.198888888629937,37.20944444367836],[-0.661666666592869,37.32805555596559],[-0.575833332898014,37.35416666713034],[-0.4888888891979,37.39055555581885],[-0.41222222158039,37.44000000022267],[-0.353888888812463,37.488055556140296],[0.166666666976182,38.000000000211664],[0.277500000043722,38.17583333267124],[0.42611111101909,38.41000000028397],[0.483333332883429,38.4999999997261],[0.483333332883429,38.60830277771635],[0.483333332883429,38.81972222208999],[0.483333332883429,38.92416666709026],[0.483333332883429,38.941944443659246],[0.483330556190901,39.0640999997983],[0.483333332883429,39.13611111109595],[0.483333332883429,39.25000000002767],[0.470833333197087,39.26944444381521],[0.364166666691661,39.43527777773726],[0.298611110804764,39.53861111123547],[0.259999999943851,39.60000000006572],[0.227500000400022,39.64916666676279],[0.189530556146554,39.707988888974874],[0.243466667039748,39.8524833330641],[0.698611110649283,40.23138888899511]]]]}},{"type":"Feature","properties":{"id":"LECM","label_lat":"41.5","label_lon":"-3.5"},"geometry":{"type":"MultiPolygon","coordinates":[[[[-6.952222,39.031389],[-7.016667,39.116667],[-7.098567,39.100714],[-7.166667,39.116667],[-7.133333,39.133333],[-7.133333,39.169444],[-7.225,39.2],[-7.241667,39.25],[-7.227778,39.277778],[-7.3,39.333333],[-7.327778,39.388889],[-7.3,39.408333],[-7.291667,39.458333],[-7.375,39.488889],[-7.397222,39.536111],[-7.433333,39.544444],[-7.455556,39.575],[-7.491667,39.594444],[-7.526389,39.661111],[-7.083333,39.661111],[-7.0,39.686111],[-6.983333,39.8],[-6.902778,39.866667],[-6.863889,40.013889],[-6.925,40.1],[-7.005556,40.133333],[-7.0,40.230556],[-6.855556,40.266667],[-6.858333,40.297222],[-6.788889,40.333333],[-6.775,40.366667],[-6.838889,40.45],[-6.7875,40.533333],[-6.836111,40.569444],[-6.791667,40.65],[-6.808333,40.7],[-6.825,40.752778],[-6.813889,40.808333],[-6.833333,40.833333],[-6.797222,40.85],[-6.808333,40.883333],[-6.933333,41.033333],[-6.8,41.05],[-6.75,41.109722],[-6.766667,41.127778],[-6.633333,41.244444],[-6.566667,41.238889],[-6.380556,41.361111],[-6.391667,41.383333],[-6.366667,41.397222],[-6.341667,41.386111],[-6.2,41.583333],[-6.283333,41.661111],[-6.433333,41.688889],[-6.488889,41.661111],[-6.544444,41.691667],[-6.566667,41.75],[-6.516667,41.872222],[-6.561111,41.886111],[-6.541667,41.933333],[-6.579167,41.969444],[-6.586111,41.95],[-6.625,41.941667],[-6.733333,41.941667],[-6.766667,41.9875],[-6.8,41.9875],[-6.808333,41.95],[-6.930556,41.944444],[-6.959722,41.973611],[-6.997222,41.952778],[-7.063889,41.952778],[-7.116667,41.986111],[-7.166667,41.986111],[-7.183333,41.9],[-7.325,41.841667],[-7.366667,41.847222],[-7.420833,41.8125],[-7.45,41.863889],[-7.5,41.869444],[-7.508333,41.85],[-7.566667,41.830556],[-7.606944,41.843056],[-7.575,41.880556],[-7.644444,41.880556],[-7.691667,41.905556],[-7.830556,41.877778],[-7.834722,41.863889],[-7.884722,41.854167],[-7.875,41.925],[-7.905556,41.925],[-7.911111,41.883333],[-7.975,41.866667],[-8.066667,41.802778],[-8.15,41.816667],[-8.166667,41.883333],[-8.191667,41.883333],[-8.208333,41.905556],[-8.15,41.983333],[-8.083333,42.016667],[-8.083333,42.061111],[-8.133333,42.077778],[-8.183333,42.066667],[-8.186111,42.147222],[-8.333333,42.091667],[-8.505556,42.080556],[-8.527778,42.058333],[-8.622222,42.05],[-8.658333,42.002778],[-8.7,41.980556],[-8.716667,41.933333],[-8.933333,41.866667],[-10.0,42.0],[-13.0,43.0],[-13.0,45.0],[-8.0,45.0],[-4.0,44.333333],[-1.783333,43.583333],[-1.783333,43.391667],[-1.712778,43.320278],[-1.625556,43.316667],[-1.561111,43.283333],[-1.383333,43.233333],[-1.383333,43.1],[-1.25,43.15],[-1.25,43.083333],[-0.9,42.983333],[-0.75,42.983333],[-0.566667,42.833333],[-0.333333,42.866667],[-0.133333,42.816667],[-0.066667,42.7],[-1.1,39.733333],[-1.25,39.15],[-1.28,39.031389],[-1.724304348282896,39.00023786002635],[-3.099907711419681,39.000014819429246],[-3.101194497476884,38.99175860149908],[-3.419456509704885,38.991718455971004],[-3.414435008832829,39.0086506476145],[-4.456919978344194,39.00833989896438],[-4.574532660562355,38.91008257524197],[-4.760834776795463,39.008369510653],[-5.160786305738647,39.008171351726496],[-5.16087873418148,38.99999901895808],[-6.972915650356573,38.999954474808504],[-6.952222,39.031389]]]]}},{"type":"Feature","properties":{"id":"LECP","label_lat":"39.4","label_lon":"2.05"},"geometry":{"type":"MultiPolygon","coordinates":[[[[4.666666666666667,40.5],[4.366666666666666,40.5],[4.255591666666667,40.5],[4.189338888888889,40.5],[3.991469444444444,40.501333333333335],[3.783333333333333,40.5],[3.69,40.5],[2.358333333333333,40.5],[2.097,40.279],[1.413299722222222,39.699999722222216],[0.2275,39.649166666666666],[0.26,39.6],[0.298611111111111,39.53861111111111],[0.364166666666667,39.43527777777778],[0.470833333333333,39.269444444444446],[0.483333333333333,39.25],[0.483333333333333,39.13611111111111],[0.483330555555556,39.0641],[0.483333333333333,38.94194444444444],[0.483333333333333,38.92055555555555],[0.483333333333333,38.819722222222225],[0.483333333333333,38.60830277777778],[0.483333333333333,38.5],[0.426111111111111,38.41],[1.054722222222222,38.608333333333334],[1.118055555555556,38.608333333333334],[1.466666666666667,38.43333333333333],[1.884444444444444,38.60861111111111],[2.185652777777777,38.7335],[2.228111111111111,38.750972222222224],[3.403016666666666,39.05229166666666],[3.513888888888889,39.08],[3.957094722222223,39.276674444444446],[4.083416666666666,39.33222222222223],[4.338333333333333,39.44361111111111],[4.338055555555555,39.51111111111111],[4.666666666666667,39.71638888888889],[4.666666666666667,40.5]]]]}},{"type":"Feature","properties":{"id":"LECS","label_lat":"37.7","label_lon":"-4.4"},"geometry":{"type":"MultiPolygon","coordinates":[[[[-6.972915587756824,38.999954507288756],[-5.160876340875628,39.00000493967469],[-5.160786253925961,39.00817130307298],[-4.76083496301691,39.008369458267744],[-4.574532447783278,38.91008186798519],[-4.456919939644326,39.00833984281525],[-3.4144347380824,39.008650871751804],[-3.419457275874205,38.99171834681011],[-3.10119397455815,38.991758627317566],[-3.099907556781194,39.00001500200366],[-1.724302767453123,39.0002380834155],[-1.28,39.031389],[-1.333333,38.833333],[-1.774957756868941,37.119861956927565],[-1.498889220722339,36.63777763636615],[-1.007019815571135,36.44807474113519],[-1.500000267231284,36.249999913781075],[-2.1,35.833333],[-2.333273614850213,35.833332467031674],[-2.342269280064965,35.09938860051456],[-2.872822890547036,35.25720126292461],[-2.885315215321773,35.23713126701173],[-2.904643566117567,35.221414775218705],[-2.929217544154561,35.21106954547038],[-2.956455493565203,35.2075434415449],[-2.983434051930463,35.211027658413556],[-3.007968576129096,35.221311026569914],[-3.027541535749795,35.23732796846593],[-3.499999979132251,35.2028607374751],[-3.499997432140581,35.833332979713695],[-7.383333,35.833333],[-7.383333,35.966667],[-7.383333,37.183333],[-7.4275,37.251389],[-7.433889,37.348056],[-7.439722,37.416667],[-7.490278,37.520833],[-7.511111,37.526389],[-7.519444,37.558333],[-7.5,37.559722],[-7.506944,37.565278],[-7.403611,37.766111],[-7.322222,37.816667],[-7.276111,37.886111],[-7.246944,37.989167],[-7.194444,38.008333],[-7.133333,38.001389],[-7.095,38.040833],[-7.038611,38.018611],[-6.99,38.033333],[-7.0,38.083333],[-6.973611,38.116667],[-6.9325,38.213611],[-7.0025,38.206667],[-7.071667,38.175556],[-7.283333,38.425],[-7.329167,38.438889],[-7.295833,38.484722],[-7.313889,38.480556],[-7.333333,38.5],[-7.288889,38.55],[-7.241667,38.629167],[-7.261111,38.634722],[-7.25,38.727778],[-7.218889,38.738889],[-7.116667,38.816667],[-7.088889,38.816667],[-7.061111,38.855556],[-7.030556,38.875],[-7.047222,38.913889],[-7.022222,38.925],[-6.972915587756824,38.999954507288756]]]]}},{"type":"Feature","properties":{"id":"LPPC","label_lat":"40.0","label_lon":"-9.0"},"geometry":{"type":"MultiPolygon","coordinates":[[[[-8.933333,41.866667],[-8.716667,41.933333],[-8.7,41.980556],[-8.658333,42.002778],[-8.622222,42.05],[-8.527778,42.058333],[-8.505556,42.080556],[-8.333333,42.091667],[-8.186111,42.147222],[-8.183333,42.066667],[-8.133333,42.077778],[-8.083333,42.061111],[-8.083333,42.016667],[-8.15,41.983333],[-8.208333,41.905556],[-8.191667,41.883333],[-8.166667,41.883333],[-8.15,41.816667],[-8.066667,41.802778],[-7.975,41.866667],[-7.911111,41.883333],[-7.905556,41.925],[-7.875,41.925],[-7.884722,41.854167],[-7.834722,41.863889],[-7.830556,41.877778],[-7.691667,41.905556],[-7.644444,41.880556],[-7.575,41.880556],[-7.606944,41.843056],[-7.566667,41.830556],[-7.508333,41.85],[-7.5,41.869444],[-7.45,41.863889],[-7.420833,41.8125],[-7.366667,41.847222],[-7.325,41.841667],[-7.183333,41.9],[-7.166667,41.986111],[-7.116667,41.986111],[-7.063889,41.952778],[-6.997222,41.952778],[-6.959722,41.973611],[-6.930556,41.944444],[-6.808333,41.95],[-6.8,41.9875],[-6.766667,41.9875],[-6.733333,41.941667],[-6.625,41.941667],[-6.586111,41.95],[-6.579167,41.969444],[-6.541667,41.933333],[-6.561111,41.886111],[-6.516667,41.872222],[-6.566667,41.75],[-6.544444,41.691667],[-6.488889,41.661111],[-6.433333,41.688889],[-6.283333,41.661111],[-6.2,41.583333],[-6.341667,41.386111],[-6.366667,41.397222],[-6.391667,41.383333],[-6.380556,41.361111],[-6.566667,41.238889],[-6.633333,41.244444],[-6.766667,41.127778],[-6.75,41.109722],[-6.8,41.05],[-6.933333,41.033333],[-6.808333,40.883333],[-6.797222,40.85],[-6.833333,40.833333],[-6.813889,40.808333],[-6.825,40.752778],[-6.808333,40.7],[-6.791667,40.65],[-6.836111,40.569444],[-6.7875,40.533333],[-6.838889,40.45],[-6.775,40.366667],[-6.788889,40.333333],[-6.858333,40.297222],[-6.855556,40.266667],[-7.0,40.230556],[-7.005556,40.133333],[-6.925,40.1],[-6.863889,40.013889],[-6.902778,39.866667],[-6.983333,39.8],[-7.0,39.686111],[-7.083333,39.661111],[-7.526389,39.661111],[-7.491667,39.594444],[-7.455556,39.575],[-7.433333,39.544444],[-7.397222,39.536111],[-7.375,39.488889],[-7.291667,39.458333],[-7.3,39.408333],[-7.327778,39.388889],[-7.3,39.333333],[-7.227778,39.277778],[-7.241667,39.25],[-7.225,39.2],[-7.133333,39.169444],[-7.133333,39.133333],[-7.166667,39.116667],[-7.098567,39.100714],[-7.016667,39.116667],[-6.952222,39.031389],[-7.022222,38.925],[-7.047222,38.913889],[-7.030556,38.875],[-7.061111,38.855556],[-7.088889,38.816667],[-7.116667,38.816667],[-7.218889,38.738889],[-7.25,38.727778],[-7.261111,38.634722],[-7.241667,38.629167],[-7.288889,38.55],[-7.333333,38.5],[-7.313889,38.480556],[-7.295833,38.484722],[-7.329167,38.438889],[-7.283333,38.425],[-7.071667,38.175556],[-7.0025,38.206667],[-6.9325,38.213611],[-6.973611,38.116667],[-7.0,38.083333],[-6.99,38.033333],[-7.038611,38.018611],[-7.095,38.040833],[-7.133333,38.001389],[-7.194444,38.008333],[-7.246944,37.989167],[-7.276111,37.886111],[-7.322222,37.816667],[-7.403611,37.766111],[-7.506944,37.565278],[-7.5,37.559722],[-7.519444,37.558333],[-7.511111,37.526389],[-7.490278,37.520833],[-7.439722,37.416667],[-7.433889,37.348056],[-7.4275,37.251389],[-7.383333,37.183333],[-7.383333,35.966667],[-12.0,35.966667],[-14.616667,32.25],[-14.768085,32.079516],[-14.971418,31.883198],[-15.207576,31.716083],[-15.470826,31.581448],[-15.744333,31.484585],[-16.047423,31.423573],[-16.358333,31.403175],[-16.669244,31.423573],[-16.972498,31.484585],[-17.26063,31.584601],[-17.416667,31.65],[-17.526545,31.721158],[-17.763694,31.890894],[-17.966239,32.089629],[-18.129411,32.31247],[-18.248539,32.55393],[-18.321344,32.808128],[-18.345813,33.068611],[-18.324263,33.329159],[-18.254114,33.583292],[-18.136895,33.824752],[-17.975329,34.047593],[-17.768056,34.251111],[-15.0,36.5],[-15.0,42.0],[-13.0,43.0],[-10.0,42.0],[-8.933333,41.866667]]]]}},{"type":"Feature","properties":{"id":"LPPO","label_lat":"33.0","label_lon":"-28.0"},"geometry":{"type":"MultiPolygon","coordinates":[[[[-40.0,45.0],[-13.0,45.0],[-13.0,43.0],[-15.0,42.0],[-15.0,36.5],[-17.768056,34.251111],[-17.975329,34.047593],[-18.136895,33.824752],[-18.254114,33.583292],[-18.324263,33.329159],[-18.345813,33.068611],[-18.321344,32.808128],[-18.248539,32.55393],[-18.129411,32.31247],[-17.966239,32.089629],[-17.763694,31.890894],[-17.526545,31.721158],[-17.416667,31.65],[-20.0,30.0],[-20.391944,29.999444],[-25.0,30.0],[-25.0,24.0],[-37.5,16.999167],[-40.0,22.3],[-40.0,45.0]]]]}}]}